*******************************************************************************
JPL/HORIZONS                    (2012 VP113)               2020-Nov-19 17:07:16
Rec #:50205842 (+COV) Soln.date: 2017-Apr-07_16:17:09     # obs: 28 (2011-2016)
 
IAU76/J2000 helio. ecliptic osc. elements (au, days, deg., period=Julian yrs):
 
  EPOCH=  2456120.5 ! 2012-Jul-12.00 (TDB)         Residual RMS= .1295
   EC= .7021425143993947   QR= 80.56902764789251   TP= 2444110.0779919033
   OM= 90.88639852993109   W=  294.1382851102061   IN= 24.01686102937181
   A= 270.4952252095717    MA= 2.660865583818699   ADIST= 460.4214227712509
   PER= 4448.84853         N= .000221546           ANGMOM= .201448233
   DAN= 106.54673          DDN= 192.37846          L= 27.0188316
   B= -21.803055           MOID= 79.64479828       TP= 1979-Aug-24.5779919033
 
Asteroid physical parameters (km, seconds, rotational period in hours):
   GM= n.a.                RAD= n.a.               ROTPER= n.a.
   H= 4.                   G= .150                 B-V= n.a.
                           ALBEDO= n.a.            STYP= n.a.
 
ASTEROID comments: 
1: soln ref.= JPL#6, OCC=5
2: source=ORB
*******************************************************************************
 
 
*******************************************************************************
Ephemeris / WWW_USER Thu Nov 19 17:07:16 2020 Pasadena, USA      / Horizons
*******************************************************************************
Target body name: (2012 VP113)                    {source: JPL#6}
Center body name: Sun (10)                        {source: DE431}
Center-site name: BODY CENTER
*******************************************************************************
Start time      : A.D. 2020-Nov-19 00:00:00.0000 TDB
Stop  time      : A.D. 2020-Dec-19 00:00:00.0000 TDB
Step-size       : 1440 minutes
*******************************************************************************
Center geodetic : 0.00000000,0.00000000,0.0000000 {E-lon(deg),Lat(deg),Alt(km)}
Center cylindric: 0.00000000,0.00000000,0.0000000 {E-lon(deg),Dxy(km),Dz(km)}
Center radii    : 696000.0 x 696000.0 x 696000.0 k{Equator, meridian, pole}    
Small perturbers: Yes                             {source: SB431-N16}
Output units    : AU-D
Output type     : GEOMETRIC cartesian states
Output format   : 3 (position, velocity, LT, range, range-rate)
Reference frame : Ecliptic of J2000.0
*******************************************************************************
Initial IAU76/J2000 heliocentric ecliptic osculating elements (au, days, deg.):
  EPOCH=  2456120.5 ! 2012-Jul-12.00 (TDB)         Residual RMS= .1295         
   EC= .7021425143993947   QR= 80.56902764789251   TP= 2444110.0779919033      
   OM= 90.88639852993109   W=  294.1382851102061   IN= 24.01686102937181       
  Equivalent ICRF heliocentric equatorial cartesian coordinates (au, au/d):
   X= 5.249108300181028E+01  Y= 6.404851373935699E+01  Z= 1.831862640060637E+00
  VX=-1.366134242437132E-03 VY= 1.558925848643404E-03 VZ= 1.324565599698194E-03
Asteroid physical parameters (km, seconds, rotational period in hours):        
   GM= n.a.                RAD= n.a.               ROTPER= n.a.                
   H= 4.                   G= .150                 B-V= n.a.                   
                           ALBEDO= n.a.            STYP= n.a.                  
*******************************************************************************
JDTDB
   X     Y     Z
   VX    VY    VZ
   LT    RG    RR
*******************************************************************************
$$SOE
2459193.500000000 = A.D. 2020-Dec-10 00:00:00.0000 TDB 
 X = 4.818973054837640E+01 Y = 6.533962011761234E+01 Z =-2.191161444755319E+01
 VX=-1.432745150545542E-03 VY= 1.861790719108107E-03 VZ= 6.306821037659538E-04
 LT= 4.856807415516283E-01 RG= 8.409301359290934E+01 RR= 4.612253839160364E-04
2459194.500000000 = A.D. 2020-Dec-11 00:00:00.0000 TDB 
 X = 4.818829778849197E+01 Y = 6.534148189668953E+01 Z =-2.191098375996917E+01
 VX=-1.432774621624817E-03 VY= 1.861767440036127E-03 VZ= 6.306930646739593E-04
 LT= 4.856834054539102E-01 RG= 8.409347483329142E+01 RR= 4.612553819141726E-04
2459195.500000000 = A.D. 2020-Dec-12 00:00:00.0000 TDB 
 X = 4.818686499912641E+01 Y = 6.534334365250191E+01 Z =-2.191035306142305E+01
 VX=-1.432804112940557E-03 VY= 1.861744189428831E-03 VZ= 6.307040279608609E-04
 LT= 4.856860695294743E-01 RG= 8.409393610367638E+01 RR= 4.612853895283065E-04
2459196.500000000 = A.D. 2020-Dec-13 00:00:00.0000 TDB 
 X = 4.818543218025905E+01 Y = 6.534520538507772E+01 Z =-2.190972235191245E+01
 VX=-1.432833625393254E-03 VY= 1.861720966848248E-03 VZ= 6.307149936500384E-04
 LT= 4.856887337783735E-01 RG= 8.409439740407339E+01 RR= 4.613154058998373E-04
2459197.500000000 = A.D. 2020-Dec-14 00:00:00.0000 TDB 
 X = 4.818399933186827E+01 Y = 6.534706709444478E+01 Z =-2.190909163143494E+01
 VX=-1.432863159897729E-03 VY= 1.861697771850968E-03 VZ= 6.307259617675048E-04
 LT= 4.856913982006561E-01 RG= 8.409485873449078E+01 RR= 4.613454301570920E-04
2459198.500000000 = A.D. 2020-Dec-15 00:00:00.0000 TDB 
 X = 4.818256645393159E+01 Y = 6.534892878063046E+01 Z =-2.190846089998809E+01
 VX=-1.432892717383577E-03 VY= 1.861674603984397E-03 VZ= 6.307369323416396E-04
 LT= 4.856940627963650E-01 RG= 8.409532009493603E+01 RR= 4.613754614122349E-04
2459199.500000000 = A.D. 2020-Dec-16 00:00:00.0000 TDB 
 X = 4.818113354642552E+01 Y = 6.535079044366165E+01 Z =-2.190783015756943E+01
 VX=-1.432922298795480E-03 VY= 1.861651462783182E-03 VZ= 6.307479054029269E-04
 LT= 4.856967275655379E-01 RG= 8.409578148541566E+01 RR= 4.614054987583792E-04
2459200.500000000 = A.D. 2020-Dec-17 00:00:00.0000 TDB 
 X = 4.817970060932569E+01 Y = 6.535265208356476E+01 Z =-2.190719940417644E+01
 VX=-1.432951905093461E-03 VY= 1.861628347765769E-03 VZ= 6.307588809836902E-04
 LT= 4.856993925082074E-01 RG= 8.409624290593527E+01 RR= 4.614355412668300E-04
2459201.500000000 = A.D. 2020-Dec-18 00:00:00.0000 TDB 
 X = 4.817826764260672E+01 Y = 6.535451370036574E+01 Z =-2.190656863980661E+01
 VX=-1.432981537253067E-03 VY= 1.861605258430998E-03 VZ= 6.307698591178352E-04
 LT= 4.857020576244008E-01 RG= 8.409670435649960E+01 RR= 4.614655879844117E-04
2459202.500000000 = A.D. 2020-Dec-19 00:00:00.0000 TDB 
 X = 4.817683464624224E+01 Y = 6.535637529409001E+01 Z =-2.190593786445735E+01
 VX=-1.433011196265517E-03 VY= 1.861582194254743E-03 VZ= 6.307808398405766E-04
 LT= 4.857047229141391E-01 RG= 8.409716583711233E+01 RR= 4.614956379308317E-04
